[{"OBJECT_NAME":"HULIANWANG DIGUI-141","OBJECT_ID":"2026-007E","EPOCH":"2026-03-09T18:36:09.947232","MEAN_MOTION":13.36586301,"ECCENTRICITY":2.321e-5,"INCLINATION":50.0039,"RA_OF_ASC_NODE":82.3989,"ARG_OF_PERICENTER":39.9039,"MEAN_ANOMALY":320.1854,"EPHEMERIS_TYPE":0,"CLASSIFICATION_TYPE":"U","NORAD_CAT_ID":67439,"ELEMENT_SET_NO":999,"REV_AT_EPOCH":756,"BSTAR":0.00012608103,"MEAN_MOTION_DOT":-6.1e-7,"MEAN_MOTION_DDOT":0},{"OBJECT_NAME":"DELTA 1 DEB","OBJECT_ID":"1975-052HK","EPOCH":"2026-03-09T21:40:16.009248","MEAN_MOTION":12.81770899,"ECCENTRICITY":0.03720433,"INCLINATION":99.8229,"RA_OF_ASC_NODE":212.2625,"ARG_OF_PERICENTER":183.6693,"MEAN_ANOMALY":306.8575,"EPHEMERIS_TYPE":0,"CLASSIFICATION_TYPE":"U","NORAD_CAT_ID":21565,"ELEMENT_SET_NO":999,"REV_AT_EPOCH":62143,"BSTAR":0.003999118,"MEAN_MOTION_DOT":1.215e-5,"MEAN_MOTION_DDOT":0}]
